ALOS-2                  
1 39766U 14029A   26177.87830084  .00001158  00000+0  16186-3 0  9997
2 39766  97.9221 274.9032 0001577  89.2522 270.8870 14.79471532653018
KAZEOSAT 2              
1 40010U 14033A   26177.92988964  .00001033  00000+0  12555-3 0  9991
2 40010  97.5409  17.0273 0007101 293.1065  66.9402 14.85482925650406
HODOYOSHI-4             
1 40011U 14033B   26177.98554204  .00001513  00000+0  16931-3 0  9999
2 40011  97.5452   2.3352 0022098 273.8413  86.0278 14.88148221650263
DEIMOS-2                
1 40013U 14033D   26177.89637917  .00001258  00000+0  12394-3 0  9999
2 40013  97.5829  52.0444 0001224  54.1298 306.0036 14.93751423639170
HODOYOSHI-3             
1 40015U 14033F   26177.95269586  .00001047  00000+0  12661-3 0  9994
2 40015  97.6425 340.6005 0031881 324.5664  35.3433 14.85407102649073
SPOT 7                  
1 40053U 14034A   26177.97548462  .00000539  00000+0  11926-3 0  9990
2 40053  98.0631 240.2149 0001354  94.7242 265.4114 14.60966540638566
SKYSAT-B                
1 40072U 14037D   26177.87541086  .00001267  00000+0  14458-3 0  9990
2 40072  98.3842 137.3928 0004268 239.8141 120.2651 14.88050737647401
WORLDVIEW-3 (WV-3)      
1 40115U 14048A   26177.93746705  .00000818  00000+0  10206-3 0  9990
2 40115  97.8564 252.6357 0000198  21.3498 338.7726 14.85036836643358
GAOFEN-2                
1 40118U 14049A   26177.97363369  .00000192  00000+0  31809-4 0  9997
2 40118  98.0111 242.1714 0006758 190.9112 169.1955 14.80907115640682
YAOGAN-21               
1 40143U 14053A   26177.99576681  .00007003  00000+0  27049-3 0  9993
2 40143  97.1473 217.8103 0009572  65.8167 294.4073 15.26511957656450
YAOGAN-22               
1 40275U 14063A   26177.92022351 -.00000022  00000+0  65942-4 0  9993
2 40275 100.7735 329.3555 0006561 163.8699 196.2622 13.15531216561092
ASNARO                  
1 40298U 14070A   26177.90559841  .00006852  00000+0  32503-3 0  9995
2 40298  97.3452 253.7571 0006332 136.4321 223.7416 15.19568499645488
YAOGAN-24               
1 40310U 14072A   26177.97830407  .00000492  00000+0  78885-4 0  9997
2 40310  98.1494 315.3994 0013289 230.4509 129.5526 14.76096574625164
CBERS 4                 
1 40336U 14079A   26178.00458237  .00000003  00000+0  15604-4 0  9992
2 40336  98.3534 234.5281 0001537  54.9551 305.1779 14.35511063605361
YAOGAN-26               
1 40362U 14088A   26177.96217277  .00029911  00000+0  57760-3 0  9999
2 40362  97.0639 177.9440 0004884  44.0123 316.1517 15.47741841639218
SMAP                    
1 40376U 15003A   26177.92606197  .00000416  00000+0  89653-4 0  9997
2 40376  98.1276 184.8826 0001431  98.3586 261.7778 14.63374525609047
KOMPSAT-3A              
1 40536U 15014A   26177.96385058  .00029460  00000+0  41769-3 0  9996
2 40536  97.6882 170.0435 0057100 139.6023 220.9492 15.54461116623336
SENTINEL-2A             
1 40697U 15028A   26177.93497773 -.00000030  00000+0  50105-5 0  9993
2 40697  98.5686 252.6483 0001166  93.1540 266.9776 14.30817385575129
GAOFEN-8                
1 40701U 15030A   26177.99000258  .00009393  00000+0  19230-3 0  9998
2 40701  97.6907  11.9502 0009446 152.5676 207.6074 15.46295003612960
CARBONITE 1 (CBNT-1)    
1 40718U 15032D   26177.96204826  .00001679  00000+0  20948-3 0  9999
2 40718  97.6510 355.6195 0012937 262.6611  97.3134 14.83614403590791
YAOGAN-27               
1 40878U 15040A   26177.98728716 -.00000190  00000+0 -38859-3 0  9995
2 40878 100.1153 163.9445 0007986 186.7588 173.3419 13.16070828518957
GAOFEN-9 01             
1 40894U 15047A   26177.98175926  .00000982  00000+0  12652-3 0  9999
2 40894  97.6271 213.2313 0028851 107.1616 253.2761 14.82901687581646
YAOGAN-28               
1 41026U 15064A   26177.95269758  .00006910  00000+0  25875-3 0  9998
2 41026  97.3081 316.0161 0011458 150.2613 209.9280 15.27538995592176
YAOGAN-29               
1 41038U 15069A   26177.96066153  .00000405  00000+0  56357-4 0  9994
2 41038  98.0029 206.6085 0002055  39.2188 320.9174 14.83091759572070
KENT RIDGE 1            
1 41167U 15077B   26177.39678528  .00004082  00000+0  13611-3 0  9998
2 41167  14.9781 197.4940 0008186   8.5301 351.5159 15.23182390582508
GAOFEN-4                
1 41194U 15083A   26176.90227766 -.00000324  00000+0  00000+0 0  9995
2 41194   0.3805  83.9226 0004051 113.8387 146.7998  1.00271078 38616
JASON-3                 
1 41240U 16002A   26177.94448928 -.00000075  00000+0 -51368-4 0  9991
2 41240  66.0415 105.3225 0008401 272.3362  87.6695 12.87623031488500
SENTINEL-3A             
1 41335U 16011A   26177.96462096  .00000092  00000+0  56213-4 0  9991
2 41335  98.6246 245.2077 0001437  96.8765 263.2579 14.26735132539450
ZIYUAN 3-02 (ZY 3-02)   
1 41556U 16033A   26177.99055427  .00005290  00000+0  23933-3 0  9996
2 41556  97.3839 253.5762 0012493 252.7540 107.2329 15.21268573559470
CARTOSAT-2C             
1 41599U 16040A   26177.94028689  .00004212  00000+0  20276-3 0  9996
2 41599  97.4486 237.7840 0010531 101.4507 258.7911 15.19264103555197
